{
  "type": "FeatureCollection",
  "features": [
    {
      "type": "Feature",
      "properties": {
        "norad_id": 31888,
        "name": "FENGYUN 1C DEB",
        "group": "fengyun-1c-debris",
        "lat": -32.54935883834797,
        "lon": 97.46826296317838,
        "alt_km": 773.2789011969508,
        "timestamp": "2025-12-22T09:53:37.686105+00:00",
        "meta_object_name": "FENGYUN 1C DEB",
        "meta_object_id": "1999-025CKP",
        "meta_epoch": "2025-12-21T06:06:39.816864",
        "meta_mean_motion": 14.3400615,
        "meta_eccentricity": 0.00173608,
        "meta_inclination": 99.154,
        "meta_ra_of_asc_node": 282.1511,
        "meta_arg_of_pericenter": 189.7381,
        "meta_mean_anomaly": 170.3468,
        "meta_ephemeris_type": 0,
        "meta_classification_type": "U",
        "meta_norad_cat_id": 31888,
        "meta_element_set_no": 999,
        "meta_rev_at_epoch": 95759,
        "meta_bstar": 0.0012753272,
        "meta_mean_motion_dot": 3.519e-05,
        "meta_mean_motion_ddot": 0,
        "tle_line1": "1 31888U 99025CKP 25355.25462751  .00003519  00000+0  12753-2 0  9992",
        "tle_line2": "2 31888  99.1540 282.1511 0017360 189.7381 170.3468 14.34006150957590"
      },
      "geometry": {
        "type": "Point",
        "coordinates": [
          97.46826296317838,
          -32.54935883834797
        ]
      }
    },
    {
      "type": "Feature",
      "properties": {
        "norad_id": 31890,
        "name": "FENGYUN 1C DEB",
        "group": "fengyun-1c-debris",
        "lat": 35.26146146182345,
        "lon": -166.13596411718115,
        "alt_km": 838.7825215258117,
        "timestamp": "2025-12-22T09:53:37.686114+00:00",
        "meta_object_name": "FENGYUN 1C DEB",
        "meta_object_id": "1999-025CKR",
        "meta_epoch": "2025-12-18T06:26:12.801408",
        "meta_mean_motion": 14.10135343,
        "meta_eccentricity": 0.00717599,
        "meta_inclination": 98.7186,
        "meta_ra_of_asc_node": 3.6189,
        "meta_arg_of_pericenter": 226.3843,
        "meta_mean_anomaly": 133.1361,
        "meta_ephemeris_type": 0,
        "meta_classification_type": "U",
        "meta_norad_cat_id": 31890,
        "meta_element_set_no": 999,
        "meta_rev_at_epoch": 64230,
        "meta_bstar": 0.00011349556,
        "meta_mean_motion_dot": 1.63e-06,
        "meta_mean_motion_ddot": 0,
        "tle_line1": "1 31890U 99025CKR 25352.26820372  .00000163  00000+0  11350-3 0  9995",
        "tle_line2": "2 31890  98.7186   3.6189 0071759 226.3843 133.1361 14.10135343642304"
      },
      "geometry": {
        "type": "Point",
        "coordinates": [
          -166.13596411718115,
          35.26146146182345
        ]
      }
    },
    {
      "type": "Feature",
      "properties": {
        "norad_id": 31891,
        "name": "FENGYUN 1C DEB",
        "group": "fengyun-1c-debris",
        "lat": -32.699119357582695,
        "lon": 17.325966437593408,
        "alt_km": 1182.1416609851767,
        "timestamp": "2025-12-22T09:53:37.686126+00:00",
        "meta_object_name": "FENGYUN 1C DEB",
        "meta_object_id": "1999-025CKS",
        "meta_epoch": "2025-12-21T18:14:40.116192",
        "meta_mean_motion": 13.66212218,
        "meta_eccentricity": 0.0225133,
        "meta_inclination": 99.4019,
        "meta_ra_of_asc_node": 10.587,
        "meta_arg_of_pericenter": 160.0672,
        "meta_mean_anomaly": 200.9444,
        "meta_ephemeris_type": 0,
        "meta_classification_type": "U",
        "meta_norad_cat_id": 31891,
        "meta_element_set_no": 999,
        "meta_rev_at_epoch": 92533,
        "meta_bstar": 0.00042203,
        "meta_mean_motion_dot": 3.72e-06,
        "meta_mean_motion_ddot": 0,
        "tle_line1": "1 31891U 99025CKS 25355.76018653  .00000372  00000+0  42203-3 0  9998",
        "tle_line2": "2 31891  99.4019  10.5870 0225133 160.0672 200.9444 13.66212218925332"
      },
      "geometry": {
        "type": "Point",
        "coordinates": [
          17.325966437593408,
          -32.699119357582695
        ]
      }
    },
    {
      "type": "Feature",
      "properties": {
        "norad_id": 31892,
        "name": "FENGYUN 1C DEB",
        "group": "fengyun-1c-debris",
        "lat": 0.7402111308614463,
        "lon": 166.8920523542531,
        "alt_km": 784.8628978627794,
        "timestamp": "2025-12-22T09:53:37.686136+00:00",
        "meta_object_name": "FENGYUN 1C DEB",
        "meta_object_id": "1999-025CKT",
        "meta_epoch": "2025-12-06T17:19:53.766912",
        "meta_mean_motion": 14.41156255,
        "meta_eccentricity": 0.01986119,
        "meta_inclination": 99.2881,
        "meta_ra_of_asc_node": 149.9643,
        "meta_arg_of_pericenter": 304.4066,
        "meta_mean_anomaly": 53.8482,
        "meta_ephemeris_type": 0,
        "meta_classification_type": "U",
        "meta_norad_cat_id": 31892,
        "meta_element_set_no": 999,
        "meta_rev_at_epoch": 64819,
        "meta_bstar": 0.001005312,
        "meta_mean_motion_dot": 4.04e-05,
        "meta_mean_motion_ddot": 0,
        "tle_line1": "1 31892U 99025CKT 25340.72215008  .00004040  00000+0  10053-2 0  9995",
        "tle_line2": "2 31892  99.2881 149.9643 0198611 304.4066  53.8482 14.41156255648199"
      },
      "geometry": {
        "type": "Point",
        "coordinates": [
          166.8920523542531,
          0.7402111308614463
        ]
      }
    },
    {
      "type": "Feature",
      "properties": {
        "norad_id": 31893,
        "name": "FENGYUN 1C DEB",
        "group": "fengyun-1c-debris",
        "lat": 70.85954861166945,
        "lon": -71.74721918740089,
        "alt_km": 761.6610621229102,
        "timestamp": "2025-12-22T09:53:37.686146+00:00",
        "meta_object_name": "FENGYUN 1C DEB",
        "meta_object_id": "1999-025CKU",
        "meta_epoch": "2025-12-21T04:05:40.704864",
        "meta_mean_motion": 14.63799874,
        "meta_eccentricity": 0.01744274,
        "meta_inclination": 99.0712,
        "meta_ra_of_asc_node": 314.2943,
        "meta_arg_of_pericenter": 300.8444,
        "meta_mean_anomaly": 71.653,
        "meta_ephemeris_type": 0,
        "meta_classification_type": "U",
        "meta_norad_cat_id": 31893,
        "meta_element_set_no": 999,
        "meta_rev_at_epoch": 98528,
        "meta_bstar": 0.00027010853,
        "meta_mean_motion_dot": 1.686e-05,
        "meta_mean_motion_ddot": 0,
        "tle_line1": "1 31893U 99025CKU 25355.17061001  .00001686  00000+0  27011-3 0  9999",
        "tle_line2": "2 31893  99.0712 314.2943 0174427 300.8444  71.6530 14.63799874985280"
      },
      "geometry": {
        "type": "Point",
        "coordinates": [
          -71.74721918740089,
          70.85954861166945
        ]
      }
    },
    {
      "type": "Feature",
      "properties": {
        "norad_id": 31895,
        "name": "FENGYUN 1C DEB",
        "group": "fengyun-1c-debris",
        "lat": 65.43295268320655,
        "lon": -134.62028882831285,
        "alt_km": 972.984891402728,
        "timestamp": "2025-12-22T09:53:37.686415+00:00",
        "meta_object_name": "FENGYUN 1C DEB",
        "meta_object_id": "1999-025CKW",
        "meta_epoch": "2025-12-21T08:53:21.221664",
        "meta_mean_motion": 13.75563213,
        "meta_eccentricity": 0.02271801,
        "meta_inclination": 99.0924,
        "meta_ra_of_asc_node": 23.8796,
        "meta_arg_of_pericenter": 206.8551,
        "meta_mean_anomaly": 152.0693,
        "meta_ephemeris_type": 0,
        "meta_classification_type": "U",
        "meta_norad_cat_id": 31895,
        "meta_element_set_no": 999,
        "meta_rev_at_epoch": 62015,
        "meta_bstar": 0.0016724146,
        "meta_mean_motion_dot": 1.904e-05,
        "meta_mean_motion_ddot": 0,
        "tle_line1": "1 31895U 99025CKW 25355.37038451  .00001904  00000+0  16724-2 0  9997",
        "tle_line2": "2 31895  99.0924  23.8796 0227180 206.8551 152.0693 13.75563213620159"
      },
      "geometry": {
        "type": "Point",
        "coordinates": [
          -134.62028882831285,
          65.43295268320655
        ]
      }
    },
    {
      "type": "Feature",
      "properties": {
        "norad_id": 31898,
        "name": "FENGYUN 1C DEB",
        "group": "fengyun-1c-debris",
        "lat": -46.68865081341062,
        "lon": -128.8382874644015,
        "alt_km": 727.360396991261,
        "timestamp": "2025-12-22T09:53:37.686427+00:00",
        "meta_object_name": "FENGYUN 1C DEB",
        "meta_object_id": "1999-025CKZ",
        "meta_epoch": "2025-12-20T09:03:23.166144",
        "meta_mean_motion": 14.68533537,
        "meta_eccentricity": 0.01439518,
        "meta_inclination": 98.707,
        "meta_ra_of_asc_node": 219.6404,
        "meta_arg_of_pericenter": 195.5546,
        "meta_mean_anomaly": 164.1211,
        "meta_ephemeris_type": 0,
        "meta_classification_type": "U",
        "meta_norad_cat_id": 31898,
        "meta_element_set_no": 999,
        "meta_rev_at_epoch": 65824,
        "meta_bstar": 0.00069711283,
        "meta_mean_motion_dot": 4.672e-05,
        "meta_mean_motion_ddot": 0,
        "tle_line1": "1 31898U 99025CKZ 25354.37735146  .00004672  00000+0  69711-3 0  9994",
        "tle_line2": "2 31898  98.7070 219.6404 0143951 195.5546 164.1211 14.68533537658242"
      },
      "geometry": {
        "type": "Point",
        "coordinates": [
          -128.8382874644015,
          -46.68865081341062
        ]
      }
    }
  ]
}